SCD 1                   
1 22490U 93009B   26191.02147049  .00000324  00000+0  37843-4 0  9991
2 22490  24.9701  66.5857 0041908  19.9746 116.4934 14.46127497764423
TECHSAT 1B (GO-32)      
1 25397U 98043D   26190.68260221  .00000032  00000+0  34171-4 0  9999
2 25397  99.0080 184.0097 0002037 123.5145 236.6227 14.24432637454531
SCD 2                   
1 25504U 98060A   26191.28670983  .00000304  00000+0  34012-4 0  9991
2 25504  24.9956 289.7083 0016819   8.0916  17.3455 14.45533934463671
DLR-TUBSAT              
1 25757U 99029B   26190.40716193  .00000048  00000+0  23779-4 0  9997
2 25757  98.6706 186.6433 0012997 283.9140  76.0608 14.52432483436477
TERRA                   
1 25994U 99068A   26191.30709104  .00000227  00000+0  55092-4 0  9999
2 25994  97.9443 239.9353 0003204 132.4782 318.6101 14.61121317412988
MAROC-TUBSAT            
1 27004U 01056D   26191.30821939 -.00000020  00000+0  29742-4 0  9999
2 27004  99.8095   8.6047 0020636  84.1182  45.5538 13.70263353229355
AQUA                    
1 27424U 02022A   26191.26209170  .00000478  00000+0  10470-3 0  9994
2 27424  98.4291 161.0082 0000800 104.5523   7.0393 14.62192713286644
SHIYAN-1 (SY-1)         
1 28220U 04012A   26191.20922018  .00010088  00000+0  30561-3 0  9998
2 28220  97.8689 270.7823 0004081 299.3678  60.7156 15.34369818214627
AURA                    
1 28376U 04026A   26191.26609796  .00000481  00000+0  10707-3 0  9992
2 28376  98.3428 147.9123 0001264  92.0974 268.0371 14.61363523169583
IRS-P5 (CARTOSAT-1)     
1 28649U 05017A   26190.49211259  .00000943  00000+0  10046-3 0  9992
2 28649  97.5305 212.5447 0001681  56.2573 303.8806 14.91108210147141
SINAH 1                 
1 28893U 05043D   26191.28940140  .00000178  00000+0  43286-4 0  9991
2 28893  98.2887 325.7509 0014028 199.0608 161.0071 14.64173561103900
RESURS-DK 1             
1 29228U 06021A   26190.24541127  .00001215  00000+0  74141-4 0  9995
2 29228  69.9328 282.4503 0006781 277.8398  82.1999 15.13306588105916
ARIRANG-2 (KOMPSAT-2)   
1 29268U 06031A   26191.32300061  .00000124  00000+0  31685-4 0  9994
2 29268  97.8319  14.6510 0014664   6.2776  95.1958 14.64673692 64861
LAPAN-TUBSAT            
1 29709U 07001A   26191.28378623  .00000473  00000+0  60682-4 0  9992
2 29709  98.1353 191.0292 0013489 108.1757 252.0928 14.85973046 54583
HAIYANG-1B              
1 31113U 07010A   26190.65907088  .00000056  00000+0  37059-4 0  9996
2 31113  98.3510 171.6342 0014449 131.0911 229.1523 14.31032387  3851
COSMO-SKYMED 1          
1 31598U 07023A   26191.25979679  .00001370  00000+0  12368-3 0  9994
2 31598  97.8844  23.3108 0001071  96.7076 263.4268 14.97205201 33243
TERRASAR-X              
1 31698U 07026A   26188.47915537  .00000240  00000+0  14624-4 0  9994
2 31698  97.4461 195.8972 0001878  86.9540 273.1909 15.19153986 56300
WORLDVIEW-1 (WV-1)      
1 32060U 07041A   26191.26676309  .00004208  00000+0  17397-3 0  9994
2 32060  97.3891 310.6852 0001105 235.7012 124.4121 15.24524238 46395
YAOGAN-3                
1 32289U 07055A   26191.35029147  .00001247  00000+0  13223-3 0  9998
2 32289  97.8149 220.9989 0001473  78.1318 282.0066 14.90868241  9327
COSMO-SKYMED 2          
1 32376U 07059A   26191.24962771  .00000242  00000+0  36961-4 0  9995
2 32376  97.8891  14.5136 0001431  93.0320 267.1057 14.82148012  5421
RADARSAT-2              
1 32382U 07061A   26191.26814247  .00000327  00000+0  14357-3 0  9999
2 32382  98.5787 197.8708 0001321  83.9254 276.2079 14.29983329969256
CARTOSAT-2A             
1 32783U 08021A   26191.31565853  .00000785  00000+0  11221-3 0  9998
2 32783  97.7625 239.2338 0012839  42.1025 318.1171 14.79274537982222
HUANJING 1A (HJ-1A)     
1 33320U 08041A   26191.29355009  .00000559  00000+0  73010-4 0  9999
2 33320  97.6695 176.2398 0020559  64.4758 295.8580 14.84040598961833
HUANJING 1B (HJ-1B)     
1 33321U 08041B   26191.27322111  .00001335  00000+0  16707-3 0  9998
2 33321  97.6533 179.3223 0037898 106.7053 253.8326 14.83362110961836
GEOEYE 1                
1 33331U 08042A   26191.24248649  .00000247  00000+0  55418-4 0  9994
2 33331  98.1328 264.8963 0004322   3.2956 356.8275 14.64646947953521
THEOS                   
1 33396U 08049A   26191.28970708  .00000131  00000+0  81452-4 0  9993
2 33396  98.5560 247.8222 0001119  86.1200 274.0105 14.20136450921248
COSMO-SKYMED 3          
1 33412U 08054A   26191.31591757  .00001131  00000+0  79597-4 0  9993
2 33412  97.8266  50.2698 0015407 181.7190 178.3986 15.07094097960422
YAOGAN-4                
1 33446U 08061A   26191.23904740  .00000606  00000+0  80608-4 0  9990
2 33446  97.9305 124.5797 0014279   1.9835 358.1433 14.83245790949089
GOSAT (IBUKI)           
1 33492U 09002A   26191.25211760 -.00000055  00000+0 -12238-5 0  9997
2 33492  98.0915 302.0457 0001034  88.6000 271.5323 14.67535064934848
DEIMOS-1                
1 35681U 09041A   26191.31519613  .00000053  00000+0  14879-4 0  9995
2 35681  97.7430 347.5438 0002698  99.7346 260.4169 14.75259925910290
