OBJECT_NAME,OBJECT_ID,EPOCH,MEAN_MOTION,ECCENTRICITY,INCLINATION,RA_OF_ASC_NODE,ARG_OF_PERICENTER,MEAN_ANOMALY,EPHEMERIS_TYPE,CLASSIFICATION_TYPE,NORAD_CAT_ID,ELEMENT_SET_NO,REV_AT_EPOCH,BSTAR,MEAN_MOTION_DOT,MEAN_MOTION_DDOT
SCD 1,1993-009B,2026-07-10T00:30:55.050336,14.46127497,.00419086,24.9701,66.5857,19.9746,116.4934,0,U,22490,999,76442,.37842574E-4,.324E-5,0
TECHSAT 1B (GO-32),1998-043D,2026-07-09T16:22:56.830944,14.24432637,.00020377,99.0080,184.0097,123.5145,236.6227,0,U,25397,999,45453,.3417109E-4,.32E-6,0
SCD 2,1998-060A,2026-07-10T06:52:51.729312,14.45533934,.00168192,24.9956,289.7083,8.0916,17.3455,0,U,25504,999,46367,.3401185E-4,.304E-5,0
DLR-TUBSAT,1999-029B,2026-07-09T09:46:18.790752,14.52432483,.00129972,98.6706,186.6433,283.9140,76.0608,0,U,25757,999,43647,.23779159E-4,.48E-6,0
TERRA,1999-068A,2026-07-10T07:22:12.665856,14.61121317,.00032042,97.9443,239.9353,132.4782,318.6101,0,U,25994,999,41298,.550922E-4,.227E-5,0
MAROC-TUBSAT,2001-056D,2026-07-10T07:23:50.155296,13.70263353,.00206366,99.8095,8.6047,84.1182,45.5538,0,U,27004,999,22935,.29741758E-4,-.2E-6,0
AQUA,2002-022A,2026-07-10T06:17:24.722880,14.62192713,.00008005,98.4291,161.0082,104.5523,7.0393,0,U,27424,999,28664,.10469885E-3,.478E-5,0
SHIYAN-1 (SY-1),2004-012A,2026-07-10T05:01:16.623552,15.34369818,.00040815,97.8689,270.7823,299.3678,60.7156,0,U,28220,999,21462,.30561261E-3,.10088E-3,0
AURA,2004-026A,2026-07-10T06:23:10.863744,14.61363523,.00012646,98.3428,147.9123,92.0974,268.0371,0,U,28376,999,16958,.10706917E-3,.481E-5,0
IRS-P5 (CARTOSAT-1),2005-017A,2026-07-09T11:48:38.527776,14.91108210,.00016817,97.5305,212.5447,56.2573,303.8806,0,U,28649,999,14714,.10046227E-3,.943E-5,0
SINAH 1,2005-043D,2026-07-10T06:56:44.280960,14.64173561,.00140288,98.2887,325.7509,199.0608,161.0071,0,U,28893,999,10390,.43286335E-4,.178E-5,0
RESURS-DK 1,2006-021A,2026-07-09T05:53:23.533728,15.13306588,.00067816,69.9328,282.4503,277.8398,82.1999,0,U,29228,999,10591,.74140722E-4,.1215E-4,0
ARIRANG-2 (KOMPSAT-2),2006-031A,2026-07-10T07:45:07.252704,14.64673692,.00146649,97.8319,14.6510,6.2776,95.1958,0,U,29268,999,6486,.31685006E-4,.124E-5,0
LAPAN-TUBSAT,2007-001A,2026-07-10T06:48:39.130272,14.85973046,.00134894,98.1353,191.0292,108.1757,252.0928,0,U,29709,999,5458,.6068219E-4,.473E-5,0
HAIYANG-1B,2007-010A,2026-07-09T15:49:03.724032,14.31032387,.00144499,98.3510,171.6342,131.0911,229.1523,0,U,31113,999,385,.37058614E-4,.56E-6,0
COSMO-SKYMED 1,2007-023A,2026-07-10T06:14:06.442656,14.97205201,.00010716,97.8844,23.3108,96.7076,263.4268,0,U,31598,999,3324,.12367892E-3,.137E-4,0
TERRASAR-X,2007-026A,2026-07-07T11:29:59.023968,15.19153986,.0001878,97.4461,195.8972,86.9540,273.1909,0,U,31698,999,5630,.14624E-4,.24E-5,0
WORLDVIEW-1 (WV-1),2007-041A,2026-07-10T06:24:08.330976,15.24524238,.00011052,97.3891,310.6852,235.7012,124.4121,0,U,32060,999,4639,.17397291E-3,.4208E-4,0
YAOGAN-3,2007-055A,2026-07-10T08:24:25.183008,14.90868241,.00014731,97.8149,220.9989,78.1318,282.0066,0,U,32289,999,932,.13222918E-3,.1247E-4,0
COSMO-SKYMED 2,2007-059A,2026-07-10T05:59:27.834144,14.82148012,.00014312,97.8891,14.5136,93.0320,267.1057,0,U,32376,999,542,.36961173E-4,.242E-5,0
RADARSAT-2,2007-061A,2026-07-10T06:26:07.509408,14.29983329,.00013218,98.5787,197.8708,83.9254,276.2079,0,U,32382,999,96925,.14356679E-3,.327E-5,0
CARTOSAT-2A,2008-021A,2026-07-10T07:34:32.896992,14.79274537,.00128393,97.7625,239.2338,42.1025,318.1171,0,U,32783,999,98222,.11220535E-3,.785E-5,0
HUANJING 1A (HJ-1A),2008-041A,2026-07-10T07:02:42.727776,14.84040598,.00205599,97.6695,176.2398,64.4758,295.8580,0,U,33320,999,96183,.73010369E-4,.559E-5,0
HUANJING 1B (HJ-1B),2008-041B,2026-07-10T06:33:26.303904,14.83362110,.00378983,97.6533,179.3223,106.7053,253.8326,0,U,33321,999,96183,.16706924E-3,.1335E-4,0
GEOEYE 1,2008-042A,2026-07-10T05:49:10.832736,14.64646947,.00043229,98.1328,264.8963,3.2956,356.8275,0,U,33331,999,95352,.55418147E-4,.247E-5,0
THEOS,2008-049A,2026-07-10T06:57:10.691712,14.20136450,.00011197,98.5560,247.8222,86.1200,274.0105,0,U,33396,999,92124,.81452121E-4,.131E-5,0
COSMO-SKYMED 3,2008-054A,2026-07-10T07:34:55.278048,15.07094097,.00154074,97.8266,50.2698,181.7190,178.3986,0,U,33412,999,96042,.7959744E-4,.1131E-4,0
YAOGAN-4,2008-061A,2026-07-10T05:44:13.695360,14.83245790,.00142792,97.9305,124.5797,1.9835,358.1433,0,U,33446,999,94908,.80608221E-4,.606E-5,0
GOSAT (IBUKI),2009-002A,2026-07-10T06:03:02.960640,14.67535064,.00010349,98.0915,302.0457,88.6000,271.5323,0,U,33492,999,93484,-.1223841E-5,-.55E-6,0
DEIMOS-1,2009-041A,2026-07-10T07:33:52.945632,14.75259925,.00026984,97.7430,347.5438,99.7346,260.4169,0,U,35681,999,91029,.14879242E-4,.53E-6,0
